start=new Date('2022-04-01T00:00:00.000Z').valueOf();
sats=[{"APOAPSIS":"548.214","OBJECT_TYPE":"PAYLOAD","CLASSIFICATION_TYPE":"U","OBJECT_NAME":"STARLINK-1146","GP_ID":"200143371","TLE_LINE2":"2 45094  53.0533 227.2176 0001470  71.5677 288.5472 15.06405625120110","REF_FRAME":"TEME","MEAN_MOTION_DOT":"0.00006511","TIME_SYSTEM":"UTC","MEAN_MOTION":"15.06405625","DECAY_DATE":null,"TLE_LINE1":"1 45094U 20006BC  22090.53915675  .00006511  00000-0  45553-3 0  9992","PERIOD":"95.592","MEAN_ELEMENT_THEORY":"SGP4","LAUNCH_DATE":"2020-01-29","CENTER_NAME":"EARTH","OBJECT_ID":"2020-006BC","ELEMENT_SET_NO":"999","FILE":"3381849","RA_OF_ASC_NODE":"227.2176","ARG_OF_PERICENTER":"71.5677","NORAD_CAT_ID":"45094","COUNTRY_CODE":"US","SEMIMAJOR_AXIS":"6925.331","INCLINATION":"53.0533","ECCENTRICITY":"0.00014700","PERIAPSIS":"546.178","EPHEMERIS_TYPE":"0","BSTAR":"0.00045553000000","REV_AT_EPOCH":"12011","MEAN_MOTION_DDOT":"0.0000000000000","RCS_SIZE":"LARGE","EPOCH":"2022-03-31T12:56:23.143200","MEAN_ANOMALY":"288.5472","SITE":"AFETR"},{"SITE":"AFETR","MEAN_ANOMALY":"296.6192","REV_AT_EPOCH":"12011","RCS_SIZE":"LARGE","MEAN_MOTION_DDOT":"0.0000000000000","EPOCH":"2022-03-31T13:01:42.088800","INCLINATION":"53.0525","SEMIMAJOR_AXIS":"6925.350","COUNTRY_CODE":"US","BSTAR":"0.00028238000000","EPHEMERIS_TYPE":"0","PERIAPSIS":"546.186","ECCENTRICITY":"0.00014860","FILE":"3381849","RA_OF_ASC_NODE":"227.2070","ELEMENT_SET_NO":"999","OBJECT_ID":"2020-006BD","NORAD_CAT_ID":"45095","ARG_OF_PERICENTER":"63.4949","LAUNCH_DATE":"2020-01-29","MEAN_ELEMENT_THEORY":"SGP4","PERIOD":"95.592","CENTER_NAME":"EARTH","TLE_LINE1":"1 45095U 20006BD  22090.54284825  .00003927  00000-0  28238-3 0  9999","DECAY_DATE":null,"MEAN_MOTION_DOT":"0.00003927","TIME_SYSTEM":"UTC","REF_FRAME":"TEME","TLE_LINE2":"2 45095  53.0525 227.2070 0001486  63.4949 296.6192 15.06399481120115","MEAN_MOTION":"15.06399481","CLASSIFICATION_TYPE":"U","OBJECT_TYPE":"PAYLOAD","APOAPSIS":"548.244","GP_ID":"200144616","OBJECT_NAME":"STARLINK-1147"},{"OBJECT_ID":"2020-006BE","ELEMENT_SET_NO":"999","FILE":"3381849","RA_OF_ASC_NODE":"227.2419","ARG_OF_PERICENTER":"60.3471","NORAD_CAT_ID":"45096","COUNTRY_CODE":"US","SEMIMAJOR_AXIS":"6925.343","INCLINATION":"53.0521","ECCENTRICITY":"0.00015100","EPHEMERIS_TYPE":"0","PERIAPSIS":"546.162","BSTAR":"0.00024971000000","REV_AT_EPOCH":"12010","RCS_SIZE":"LARGE","MEAN_MOTION_DDOT":"0.0000000000000","EPOCH":"2022-03-31T12:51:04.849920","MEAN_ANOMALY":"299.7668","SITE":"AFETR","APOAPSIS":"548.253","OBJECT_TYPE":"PAYLOAD","CLASSIFICATION_TYPE":"U","OBJECT_NAME":"STARLINK-1152","GP_ID":"200144852","TLE_LINE2":"2 45096  53.0521 227.2419 0001510  60.3471 299.7668 15.06401892120104","MEAN_MOTION_DOT":"0.00003440","TIME_SYSTEM":"UTC","REF_FRAME":"TEME","MEAN_MOTION":"15.06401892","DECAY_DATE":null,"TLE_LINE1":"1 45096U 20006BE  22090.53547280  .00003440  00000-0  24971-3 0  9996","PERIOD":"95.592","MEAN_ELEMENT_THEORY":"SGP4","LAUNCH_DATE":"2020-01-29","CENTER_NAME":"EARTH"},{"APOAPSIS":"548.141","OBJECT_TYPE":"PAYLOAD","CLASSIFICATION_TYPE":"U","OBJECT_NAME":"STARLINK-1184","GP_ID":"200143121","TLE_LINE2":"2 45098  53.0533 227.3235 0001321  97.0367 263.0772 15.06395885120101","MEAN_MOTION_DOT":"0.00001908","REF_FRAME":"TEME","TIME_SYSTEM":"UTC","MEAN_MOTION":"15.06395885","DECAY_DATE":null,"TLE_LINE1":"1 45098U 20006BG  22090.51704428  .00001908  00000-0  14699-3 0  9998","PERIOD":"95.592","MEAN_ELEMENT_THEORY":"SGP4","LAUNCH_DATE":"2020-01-29","CENTER_NAME":"EARTH","OBJECT_ID":"2020-006BG","ELEMENT_SET_NO":"999","RA_OF_ASC_NODE":"227.3235","FILE":"3381849","ARG_OF_PERICENTER":"97.0367","NORAD_CAT_ID":"45098","COUNTRY_CODE":"US","SEMIMAJOR_AXIS":"6925.361","INCLINATION":"53.0533","ECCENTRICITY":"0.00013210","PERIAPSIS":"546.311","EPHEMERIS_TYPE":"0","BSTAR":"0.00014699000000","REV_AT_EPOCH":"12010","EPOCH":"2022-03-31T12:24:32.625792","RCS_SIZE":"LARGE","MEAN_MOTION_DDOT":"0.0000000000000","MEAN_ANOMALY":"263.0772","SITE":"AFETR"},{"MEAN_ELEMENT_THEORY":"SGP4","LAUNCH_DATE":"2020-01-29","PERIOD":"95.592","CENTER_NAME":"EARTH","TLE_LINE1":"1 45099U 20006BH  22090.55021097  .00000843  00000-0  75480-4 0  9990","DECAY_DATE":null,"TLE_LINE2":"2 45099  53.0571 227.1754 0001490  52.9260 307.1865 15.06401861120113","MEAN_MOTION_DOT":"0.00000843","TIME_SYSTEM":"UTC","REF_FRAME":"TEME","MEAN_MOTION":"15.06401861","OBJECT_TYPE":"PAYLOAD","CLASSIFICATION_TYPE":"U","APOAPSIS":"548.240","GP_ID":"200143865","OBJECT_NAME":"STARLINK-1186","MEAN_ANOMALY":"307.1865","SITE":"AFETR","REV_AT_EPOCH":"12011","RCS_SIZE":"LARGE","MEAN_MOTION_DDOT":"0.0000000000000","EPOCH":"2022-03-31T13:12:18.227808","COUNTRY_CODE":"US","SEMIMAJOR_AXIS":"6925.343","INCLINATION":"53.0571","PERIAPSIS":"546.176","EPHEMERIS_TYPE":"0","BSTAR":"0.00007548000000","ECCENTRICITY":"0.00014900","FILE":"3381849","RA_OF_ASC_NODE":"227.1754","OBJECT_ID":"2020-006BH","ELEMENT_SET_NO":"999","NORAD_CAT_ID":"45099","ARG_OF_PERICENTER":"52.9260"},{"CENTER_NAME":"EARTH","LAUNCH_DATE":"2020-01-29","MEAN_ELEMENT_THEORY":"SGP4","PERIOD":"95.591","TLE_LINE1":"1 45100U 20006BJ  22090.11527080  .00001800  00000-0  13968-3 0  9994","DECAY_DATE":null,"MEAN_MOTION":"15.06411100","MEAN_MOTION_DOT":"0.00001800","TIME_SYSTEM":"UTC","REF_FRAME":"TEME","TLE_LINE2":"2 45100  53.0559 229.1134 0001526  67.3489 292.7661 15.06411100120041","GP_ID":"200144123","OBJECT_NAME":"STARLINK-1193","CLASSIFICATION_TYPE":"U","OBJECT_TYPE":"PAYLOAD","APOAPSIS":"548.236","SITE":"AFETR","MEAN_ANOMALY":"292.7661","RCS_SIZE":"LARGE","MEAN_MOTION_DDOT":"0.0000000000000","EPOCH":"2022-03-31T02:45:59.397120","REV_AT_EPOCH":"12004","BSTAR":"0.00013968000000","PERIAPSIS":"546.123","EPHEMERIS_TYPE":"0","ECCENTRICITY":"0.00015260","INCLINATION":"53.0559","COUNTRY_CODE":"US","SEMIMAJOR_AXIS":"6925.315","NORAD_CAT_ID":"45100","ARG_OF_PERICENTER":"67.3489","RA_OF_ASC_NODE":"229.1134","FILE":"3381849","ELEMENT_SET_NO":"999","OBJECT_ID":"2020-006BJ"},{"REV_AT_EPOCH":"12010","RCS_SIZE":"LARGE","EPOCH":"2022-03-31T12:13:56.112672","MEAN_MOTION_DDOT":"0.0000000000000","SITE":"AFETR","MEAN_ANOMALY":"287.9037","RA_OF_ASC_NODE":"227.3354","FILE":"3381849","ELEMENT_SET_NO":"999","OBJECT_ID":"2020-006BK","NORAD_CAT_ID":"45101","ARG_OF_PERICENTER":"72.2119","INCLINATION":"53.0549","COUNTRY_CODE":"US","SEMIMAJOR_AXIS":"6925.356","BSTAR":"0.00015999000000","PERIAPSIS":"546.165","EPHEMERIS_TYPE":"0","ECCENTRICITY":"0.00015260","TLE_LINE1":"1 45101U 20006BK  22090.50967723  .00002102  00000-0  15999-3 0  9992","DECAY_DATE":null,"LAUNCH_DATE":"2020-01-29","MEAN_ELEMENT_THEORY":"SGP4","PERIOD":"95.592","CENTER_NAME":"EARTH","CLASSIFICATION_TYPE":"U","OBJECT_TYPE":"PAYLOAD","APOAPSIS":"548.278","GP_ID":"200144359","OBJECT_NAME":"STARLINK-1194","MEAN_MOTION_DOT":"0.00002102","TIME_SYSTEM":"UTC","REF_FRAME":"TEME","TLE_LINE2":"2 45101  53.0549 227.3354 0001526  72.2119 287.9037 15.06397436120105","MEAN_MOTION":"15.06397436"},{"ARG_OF_PERICENTER":"66.1013","NORAD_CAT_ID":"45102","ELEMENT_SET_NO":"999","OBJECT_ID":"2020-006BL","FILE":"3381849","RA_OF_ASC_NODE":"227.2593","ECCENTRICITY":"0.00015140","BSTAR":"0.00015954000000","EPHEMERIS_TYPE":"0","PERIAPSIS":"546.175","INCLINATION":"53.0535","SEMIMAJOR_AXIS":"6925.358","COUNTRY_CODE":"US","RCS_SIZE":"LARGE","EPOCH":"2022-03-31T12:45:46.307808","MEAN_MOTION_DDOT":"0.0000000000000","REV_AT_EPOCH":"12010","SITE":"AFETR","MEAN_ANOMALY":"294.0134","OBJECT_NAME":"STARLINK-1195","GP_ID":"200143615","APOAPSIS":"548.272","CLASSIFICATION_TYPE":"U","OBJECT_TYPE":"PAYLOAD","MEAN_MOTION":"15.06396828","MEAN_MOTION_DOT":"0.00002095","TIME_SYSTEM":"UTC","REF_FRAME":"TEME","TLE_LINE2":"2 45102  53.0535 227.2593 0001514  66.1013 294.0134 15.06396828120108","DECAY_DATE":null,"TLE_LINE1":"1 45102U 20006BL  22090.53178597  .00002095  00000-0  15954-3 0  9991","CENTER_NAME":"EARTH","PERIOD":"95.592","LAUNCH_DATE":"2020-01-29","MEAN_ELEMENT_THEORY":"SGP4"},{"MEAN_MOTION":"15.06418785","TLE_LINE2":"2 45103  53.0490 227.1614 0001814  79.2299 280.8894 15.06418785120110","REF_FRAME":"TEME","MEAN_MOTION_DOT":"0.00017749","TIME_SYSTEM":"UTC","GP_ID":"200143372","OBJECT_NAME":"STARLINK-1196","OBJECT_TYPE":"PAYLOAD","CLASSIFICATION_TYPE":"U","APOAPSIS":"548.412","CENTER_NAME":"EARTH","MEAN_ELEMENT_THEORY":"SGP4","LAUNCH_DATE":"2020-01-29","PERIOD":"95.591","TLE_LINE1":"1 45103U 20006BM  22090.56398084  .00017749  00000-0  12068-2 0  9994","DECAY_DATE":null,"EPHEMERIS_TYPE":"0","PERIAPSIS":"545.900","BSTAR":"0.00120680000000","ECCENTRICITY":"0.00018140","SEMIMAJOR_AXIS":"6925.291","COUNTRY_CODE":"US","INCLINATION":"53.0490","NORAD_CAT_ID":"45103","ARG_OF_PERICENTER":"79.2299","FILE":"3381849","RA_OF_ASC_NODE":"227.1614","OBJECT_ID":"2020-006BM","ELEMENT_SET_NO":"999","MEAN_ANOMALY":"280.8894","SITE":"AFETR","RCS_SIZE":"LARGE","EPOCH":"2022-03-31T13:32:07.944576","MEAN_MOTION_DDOT":"0.0000000000000","REV_AT_EPOCH":"12011"},{"MEAN_MOTION":"15.06399153","TLE_LINE2":"2 45178  53.0577  26.8648 0001539  67.1768 292.9383 15.06399153117288","MEAN_MOTION_DOT":"0.00000532","TIME_SYSTEM":"UTC","REF_FRAME":"TEME","OBJECT_NAME":"STARLINK-1138","GP_ID":"200154829","APOAPSIS":"548.282","OBJECT_TYPE":"PAYLOAD","CLASSIFICATION_TYPE":"U","CENTER_NAME":"EARTH","PERIOD":"95.592","MEAN_ELEMENT_THEORY":"SGP4","LAUNCH_DATE":"2020-02-17","DECAY_DATE":null,"TLE_LINE1":"1 45178U 20012A   22090.61656509  .00000532  00000-0  54612-4 0  9993","ECCENTRICITY":"0.00015390","EPHEMERIS_TYPE":"0","PERIAPSIS":"546.150","BSTAR":"0.00005461200000","SEMIMAJOR_AXIS":"6925.351","COUNTRY_CODE":"US","INCLINATION":"53.0577","ARG_OF_PERICENTER":"67.1768","NORAD_CAT_ID":"45178","OBJECT_ID":"2020-012A","ELEMENT_SET_NO":"999","RA_OF_ASC_NODE":"26.8648","FILE":"3382079","MEAN_ANOMALY":"292.9383","SITE":"AFETR","RCS_SIZE":"LARGE","MEAN_MOTION_DDOT":"0.0000000000000","EPOCH":"2022-03-31T14:47:51.223776","REV_AT_EPOCH":"11728"}];
